GOES 1 (SMS-C) [-]      
1 08366U 75100A   22035.57995740 -.00000142  00000+0  00000+0 0  9990
2 08366   8.5960 297.4264 0001944 337.3511 329.7921  1.00315514169085
GOES 2 [-]              
1 10061U 77048A   22035.14007855 -.00000293  00000+0  00000+0 0  9999
2 10061  10.1480 308.5233 0013897  18.8454 340.3813  0.99398320 30420
GOES 3 [-]              
1 10953U 78062A   22035.07410307 -.00000149  00000+0  00000+0 0  9998
2 10953  10.4606 312.9086 0001861  78.5810 130.6425  0.99364233112690
GOES 4 [-]              
1 11964U 80074A   22034.62595663 -.00000304  00000+0  00000+0 0  9999
2 11964  11.4063 316.7216 0033859  66.3614 110.1396  0.99232333111613
GOES 5 [-]              
1 12472U 81049A   22035.45695498 -.00000052  00000+0  00000+0 0  9996
2 12472  12.1815 327.9247 0001274  14.5452 200.8310  1.00337209106865
GOES 6 [-]              
1 14050U 83041A   22035.41188794 -.00000113  00000+0  00000+0 0  9994
2 14050  12.7084 333.1780 0002502 106.5022  96.8174  1.00327244200037
GOES 7 [-]              
1 17561U 87022A   22034.89942932  .00000027  00000+0  00000+0 0  9993
2 17561  14.3516 349.6629 0006342  37.7120 136.5299  0.99889392111034
GOES 8 [-]              
1 23051U 94022A   22035.37606694 -.00000172  00000+0  00000+0 0  9990
2 23051  13.0627  25.1434 0006876 357.6212 184.4614  0.98904812108361
GOES 9 [-]              
1 23581U 95025A   22035.51413679  .00000008  00000+0  00000+0 0  9994
2 23581  12.5538  25.3974 0004106  69.1726 117.6836  0.98798029 97018
GOES 10 [-]             
1 24786U 97019A   22035.34292402 -.00000295  00000+0  00000+0 0  9996
2 24786  11.2697  31.4779 0025626 201.6191 155.7021  0.99125439 90267
GOES 11 [-]             
1 26352U 00022A   22035.25221706  .00000005  00000+0  00000+0 0  9992
2 26352   8.4020  60.3747 0002450 258.0593 302.8896  0.99042008 36685
GOES 12 [-]             
1 26871U 01031A   22035.57967403 -.00000019  00000+0  00000+0 0  9991
2 26871   9.2797  49.0441 0008264 308.7082 248.2647  0.99134875 74965
EWS-G1 (GOES 13) [+]    
1 29155U 06018A   22035.54439814  .00000026  00000+0  00000+0 0  9993
2 29155   0.4517  99.0797 0004493 155.7763 137.4661  1.00268706 27395
GOES 14 [B]             
1 35491U 09033A   22035.57387411 -.00000101  00000+0  00000+0 0  9996
2 35491   0.0338 348.7697 0013716 238.8623   9.1739  1.00271102 46139
GOES 15 [B]             
1 36411U 10008A   22035.55462446  .00000045  00000+0  00000+0 0  9999
2 36411   0.0188 236.9763 0001246 130.1927 198.9420  1.00274933 43690
GOES 16 [+]             
1 41866U 16071A   22035.51709883 -.00000258  00000+0  00000+0 0  9997
2 41866   0.0893 269.4451 0000898  83.2927 252.8412  1.00273072 19134
GOES 17 [+]             
1 43226U 18022A   22035.60342961  .00000088  00000+0  00000+0 0  9997
2 43226   0.0612 266.0359 0000299  80.5719 228.1315  1.00272171 14445
